{
  "type": "FeatureCollection",
  "features": [
    {
      "type": "Feature",
      "properties": {
        "norad_id": 35915,
        "name": "IRIDIUM 33 DEB",
        "group": "iridium-33-debris",
        "lat": -64.40275982604447,
        "lon": -24.31366917108861,
        "alt_km": 636.0250469638895,
        "timestamp": "2025-12-11T20:41:15.466315+00:00",
        "meta_object_name": "IRIDIUM 33 DEB",
        "meta_object_id": "1997-051TY",
        "meta_epoch": "2025-12-07T18:02:16.498176",
        "meta_mean_motion": 14.80542095,
        "meta_eccentricity": 0.00101746,
        "meta_inclination": 86.3429,
        "meta_ra_of_asc_node": 345.2367,
        "meta_arg_of_pericenter": 205.9072,
        "meta_mean_anomaly": 154.1641,
        "meta_ephemeris_type": 0,
        "meta_classification_type": "U",
        "meta_norad_cat_id": 35915,
        "meta_element_set_no": 999,
        "meta_rev_at_epoch": 8012,
        "meta_bstar": 0.0030076362,
        "meta_mean_motion_dot": 0.00023136,
        "meta_mean_motion_ddot": 0,
        "tle_line1": "1 35915U 97051TY  25341.75157984  .00023136  00000+0  30076-2 0  9998",
        "tle_line2": "2 35915  86.3429 345.2367 0010174 205.9072 154.1641 14.80542095 80126"
      },
      "geometry": {
        "type": "Point",
        "coordinates": [
          -24.31366917108861,
          -64.40275982604447
        ]
      }
    },
    {
      "type": "Feature",
      "properties": {
        "norad_id": 35918,
        "name": "IRIDIUM 33 DEB",
        "group": "iridium-33-debris",
        "lat": -2.9945647254963794,
        "lon": -103.61931133784672,
        "alt_km": 705.9490585051644,
        "timestamp": "2025-12-11T20:41:15.466325+00:00",
        "meta_object_name": "IRIDIUM 33 DEB",
        "meta_object_id": "1997-051UB",
        "meta_epoch": "2025-12-11T00:33:20.254176",
        "meta_mean_motion": 14.51217376,
        "meta_eccentricity": 0.00274283,
        "meta_inclination": 86.4008,
        "meta_ra_of_asc_node": 76.552,
        "meta_arg_of_pericenter": 175.0767,
        "meta_mean_anomaly": 308.1534,
        "meta_ephemeris_type": 0,
        "meta_classification_type": "U",
        "meta_norad_cat_id": 35918,
        "meta_element_set_no": 999,
        "meta_rev_at_epoch": 85182,
        "meta_bstar": 0.001804054,
        "meta_mean_motion_dot": 7.222e-05,
        "meta_mean_motion_ddot": 0,
        "tle_line1": "1 35918U 97051UB  25345.02315109  .00007222  00000+0  18041-2 0  9996",
        "tle_line2": "2 35918  86.4008  76.5520 0027428 175.0767 308.1534 14.51217376851820"
      },
      "geometry": {
        "type": "Point",
        "coordinates": [
          -103.61931133784672,
          -2.9945647254963794
        ]
      }
    },
    {
      "type": "Feature",
      "properties": {
        "norad_id": 35929,
        "name": "IRIDIUM 33 DEB",
        "group": "iridium-33-debris",
        "lat": 47.14892553035312,
        "lon": 129.08317427551094,
        "alt_km": 556.6350171467702,
        "timestamp": "2025-12-11T20:41:15.466335+00:00",
        "meta_object_name": "IRIDIUM 33 DEB",
        "meta_object_id": "1997-051UN",
        "meta_epoch": "2025-12-10T04:07:57.675648",
        "meta_mean_motion": 15.02123789,
        "meta_eccentricity": 0.00184888,
        "meta_inclination": 86.3336,
        "meta_ra_of_asc_node": 313.8473,
        "meta_arg_of_pericenter": 44.9144,
        "meta_mean_anomaly": 315.3582,
        "meta_ephemeris_type": 0,
        "meta_classification_type": "U",
        "meta_norad_cat_id": 35929,
        "meta_element_set_no": 999,
        "meta_rev_at_epoch": 87741,
        "meta_bstar": 0.0038329706,
        "meta_mean_motion_dot": 0.00050875,
        "meta_mean_motion_ddot": 0,
        "tle_line1": "1 35929U 97051UN  25344.17219532  .00050875  00000+0  38330-2 0  9991",
        "tle_line2": "2 35929  86.3336 313.8473 0018488  44.9144 315.3582 15.02123789877415"
      },
      "geometry": {
        "type": "Point",
        "coordinates": [
          129.08317427551094,
          47.14892553035312
        ]
      }
    },
    {
      "type": "Feature",
      "properties": {
        "norad_id": 36011,
        "name": "IRIDIUM 33 DEB",
        "group": "iridium-33-debris",
        "lat": -83.34757048061338,
        "lon": -110.93078545555367,
        "alt_km": 752.7112923632758,
        "timestamp": "2025-12-11T20:41:15.466346+00:00",
        "meta_object_name": "IRIDIUM 33 DEB",
        "meta_object_id": "1997-051US",
        "meta_epoch": "2025-12-11T09:44:29.270112",
        "meta_mean_motion": 14.41324351,
        "meta_eccentricity": 0.00175171,
        "meta_inclination": 86.3418,
        "meta_ra_of_asc_node": 35.9986,
        "meta_arg_of_pericenter": 221.0198,
        "meta_mean_anomaly": 198.2237,
        "meta_ephemeris_type": 0,
        "meta_classification_type": "U",
        "meta_norad_cat_id": 36011,
        "meta_element_set_no": 999,
        "meta_rev_at_epoch": 64521,
        "meta_bstar": 0.00081009496,
        "meta_mean_motion_dot": 2.644e-05,
        "meta_mean_motion_ddot": 0,
        "tle_line1": "1 36011U 97051US  25345.40589433  .00002644  00000+0  81009-3 0  9994",
        "tle_line2": "2 36011  86.3418  35.9986 0017517 221.0198 198.2237 14.41324351645215"
      },
      "geometry": {
        "type": "Point",
        "coordinates": [
          -110.93078545555367,
          -83.34757048061338
        ]
      }
    },
    {
      "type": "Feature",
      "properties": {
        "norad_id": 36012,
        "name": "IRIDIUM 33 DEB",
        "group": "iridium-33-debris",
        "lat": -78.81029199730918,
        "lon": 146.21666538509555,
        "alt_km": 684.3338018381137,
        "timestamp": "2025-12-11T20:41:15.466359+00:00",
        "meta_object_name": "IRIDIUM 33 DEB",
        "meta_object_id": "1997-051UT",
        "meta_epoch": "2025-12-09T14:59:18.724128",
        "meta_mean_motion": 14.18848487,
        "meta_eccentricity": 0.0212452,
        "meta_inclination": 86.4428,
        "meta_ra_of_asc_node": 308.7902,
        "meta_arg_of_pericenter": 273.2722,
        "meta_mean_anomaly": 84.4182,
        "meta_ephemeris_type": 0,
        "meta_classification_type": "U",
        "meta_norad_cat_id": 36012,
        "meta_element_set_no": 999,
        "meta_rev_at_epoch": 65440,
        "meta_bstar": 0.0096093,
        "meta_mean_motion_dot": 0.00025103,
        "meta_mean_motion_ddot": 0,
        "tle_line1": "1 36012U 97051UT  25343.62452227  .00025103  00000+0  96093-2 0  9990",
        "tle_line2": "2 36012  86.4428 308.7902 0212452 273.2722  84.4182 14.18848487654405"
      },
      "geometry": {
        "type": "Point",
        "coordinates": [
          146.21666538509555,
          -78.81029199730918
        ]
      }
    },
    {
      "type": "Feature",
      "properties": {
        "norad_id": 36028,
        "name": "IRIDIUM 33 DEB",
        "group": "iridium-33-debris",
        "lat": 77.80105479825104,
        "lon": 109.80311818337204,
        "alt_km": 563.9351742177796,
        "timestamp": "2025-12-11T20:41:15.466368+00:00",
        "meta_object_name": "IRIDIUM 33 DEB",
        "meta_object_id": "1997-051VK",
        "meta_epoch": "2025-12-11T04:10:27.703200",
        "meta_mean_motion": 14.95164373,
        "meta_eccentricity": 0.00218507,
        "meta_inclination": 86.3224,
        "meta_ra_of_asc_node": 307.4347,
        "meta_arg_of_pericenter": 58.0389,
        "meta_mean_anomaly": 302.2961,
        "meta_ephemeris_type": 0,
        "meta_classification_type": "U",
        "meta_norad_cat_id": 36028,
        "meta_element_set_no": 999,
        "meta_rev_at_epoch": 87101,
        "meta_bstar": 0.0035199415,
        "meta_mean_motion_dot": 0.00039008,
        "meta_mean_motion_ddot": 0,
        "tle_line1": "1 36028U 97051VK  25345.17393175  .00039008  00000+0  35199-2 0  9994",
        "tle_line2": "2 36028  86.3224 307.4347 0021850  58.0389 302.2961 14.95164373871016"
      },
      "geometry": {
        "type": "Point",
        "coordinates": [
          109.80311818337204,
          77.80105479825104
        ]
      }
    },
    {
      "type": "Feature",
      "properties": {
        "norad_id": 36080,
        "name": "IRIDIUM 33 DEB",
        "group": "iridium-33-debris",
        "lat": 66.51553484422519,
        "lon": 179.85053843682365,
        "alt_km": 721.527667725597,
        "timestamp": "2025-12-11T20:41:15.466378+00:00",
        "meta_object_name": "IRIDIUM 33 DEB",
        "meta_object_id": "1997-051VM",
        "meta_epoch": "2025-12-09T08:24:04.128192",
        "meta_mean_motion": 14.46584309,
        "meta_eccentricity": 0.0017863,
        "meta_inclination": 86.3197,
        "meta_ra_of_asc_node": 9.4635,
        "meta_arg_of_pericenter": 167.4902,
        "meta_mean_anomaly": 192.6748,
        "meta_ephemeris_type": 0,
        "meta_classification_type": "U",
        "meta_norad_cat_id": 36080,
        "meta_element_set_no": 999,
        "meta_rev_at_epoch": 47365,
        "meta_bstar": 0.0010095558,
        "meta_mean_motion_dot": 3.665e-05,
        "meta_mean_motion_ddot": 0,
        "tle_line1": "1 36080U 97051VM  25343.35004778  .00003665  00000+0  10096-2 0  9997",
        "tle_line2": "2 36080  86.3197   9.4635 0017863 167.4902 192.6748 14.46584309473650"
      },
      "geometry": {
        "type": "Point",
        "coordinates": [
          179.85053843682365,
          66.51553484422519
        ]
      }
    }
  ]
}